{
    "links": {
        "self": "http://www.neowsapp.com/rest/v1/neo/3467184?api_key=iIulBulltgU6a56xZRHN4H3l9WmuAYTsLGpBGhQ2"
    },
    "id": "3467184",
    "neo_reference_id": "3467184",
    "name": "(2009 SK)",
    "designation": "2009 SK",
    "nasa_jpl_url": "http://ssd.jpl.nasa.gov/sbdb.cgi?sstr=3467184",
    "absolute_magnitude_h": 25.1,
    "estimated_diameter": {
        "kilometers": {
            "estimated_diameter_min": 0.0253837029,
            "estimated_diameter_max": 0.0567596853
        },
        "meters": {
            "estimated_diameter_min": 25.3837029364,
            "estimated_diameter_max": 56.7596852866
        },
        "miles": {
            "estimated_diameter_min": 0.0157726969,
            "estimated_diameter_max": 0.0352688224
        },
        "feet": {
            "estimated_diameter_min": 83.279867942,
            "estimated_diameter_max": 186.2194458756
        }
    },
    "is_potentially_hazardous_asteroid": false,
    "close_approach_data": [
        {
            "close_approach_date": "2009-09-20",
            "close_approach_date_full": "2009-Sep-20 05:54",
            "epoch_date_close_approach": 1253426040000,
            "relative_velocity": {
                "kilometers_per_second": "7.1856242621",
                "kilometers_per_hour": "25868.2473437153",
                "miles_per_hour": "16073.522911988"
            },
            "miss_distance": {
                "astronomical": "0.0504553706",
                "lunar": "19.6271391634",
                "kilometers": "7548015.971820622",
                "miles": "4690119.6411517036"
            },
            "orbiting_body": "Earth"
        }
    ],
    "orbital_data": {
        "orbit_id": "13",
        "orbit_determination_date": "2017-04-06 09:00:03",
        "first_observation_date": "2009-09-17",
        "last_observation_date": "2009-10-02",
        "data_arc_in_days": 15,
        "observations_used": 42,
        "orbit_uncertainty": "8",
        "minimum_orbit_intersection": ".0484226",
        "jupiter_tisserand_invariant": "3.104",
        "epoch_osculation": "2455095.5",
        "eccentricity": ".6029436526230028",
        "semi_major_axis": "2.646124674588341",
        "inclination": ".7784889634872885",
        "ascending_node_longitude": "341.4516066497751",
        "orbital_period": "1572.222042020169",
        "perihelion_distance": "1.050660597996192",
        "perihelion_argument": "23.28565009195876",
        "aphelion_distance": "4.24158875118049",
        "perihelion_time": "2455100.693914539945",
        "mean_anomaly": "358.8107219054265",
        "mean_motion": ".2289752912619335",
        "equinox": "J2000",
        "orbit_class": {
            "orbit_class_type": "AMO",
            "orbit_class_description": "Near-Earth asteroid orbits similar to that of 1221 Amor",
            "orbit_class_range": "1.017 AU < q (perihelion) < 1.3 AU"
        }
    },
    "is_sentry_object": false
}